#cP2023 11 24  0  0  0.00000000      96 ORBIT IGS20 HLM  IGS
## 2289 432000.00000000   900.00000000 60272 0.0000000000000
+   32   G01G02G03G04G05G06G07G08G09G10G11G12G13G14G15G16G17
+        G18G19G20G21G22G23G24G25G26G27G28G29G30G31G32  0  0
+          0  0  0  0  0  0  0  0  0  0  0  0  0  0  0  0  0
+          0  0  0  0  0  0  0  0  0  0  0  0  0  0  0  0  0
+          0  0  0  0  0  0  0  0  0  0  0  0  0  0  0  0  0
++         2  2  2  2  2  2  2  2  2  2  2  2  2  2  2  3  2
++         2  2  2  2  2  2  2  2  2  2  2  2  2  2  1  0  0
++         0  0  0  0  0  0  0  0  0  0  0  0  0  0  0  0  0
++         0  0  0  0  0  0  0  0  0  0  0  0  0  0  0  0  0
++         0  0  0  0  0  0  0  0  0  0  0  0  0  0  0  0  0
%c G  cc GPS ccc cccc cccc cccc cccc ccccc ccccc ccccc ccccc
%c cc cc ccc ccc cccc cccc cccc cccc ccccc ccccc ccccc ccccc
%f  1.2500000  1.025000000  0.00000000000  0.000000000000000
%f  0.0000000  0.000000000  0.00000000000  0.000000000000000
%i    0    0    0    0      0      0      0      0         0
%i    0    0    0    0      0      0      0      0         0
/* FINAL ORBIT COMBINATION FROM WEIGHTED AVERAGE OF:        
/* cod esa gfz grg jgx jpl mit ngs sio                      
/* REFERENCED TO IGS TIME (IGST) AND TO WEIGHTED MEAN POLE: 
/* PCV:IGS20      OL/AL:FES2014b NONE     Y  ORB:CMB CLK:CMB
*  2023 11 24  1 30  0.00000000
PG01  13750.536759 -16974.052691  14523.790574    163.289066  7  7  8  97       
PG02  14867.970362 -11273.409119  19330.925784   -524.913880 10  6 10 109       
PG03  22484.028293 -12211.066623  -7055.675916      6.395493  8  6  7  78       
PG04  12726.368329  -8638.003229 -21654.533797    221.171216  8  6  5  91       
PG05 -25398.816342   4853.374308  -6457.966000   -151.537739  8  8  6  93       
PG06  -7609.099859 -18402.074329 -17456.954715    497.735029  7  7  6  80       
PG07   4872.587136 -25837.586151    906.393551      5.563816  8  4  6  45       
PG08  19151.480508   -882.638041  18474.080609   -153.579547  8  3  4  87       
PG09   1994.941624 -17125.328973 -20277.622018      6.086743  5  5  5  78       
PG10   7415.938944  13111.468334  22090.938896    -62.581686  7  3  5  74       
PG11 -13590.998340  -7143.195384 -21654.271520   -472.897494  7  7  5  50       
PG12 -23766.240031  10263.660893  -6044.697609   -450.247774 10  8  3  83       
PG13 -20532.937242 -10173.738440  13408.611009    598.517661  5  8  5  80       
PG14  -3207.696511 -15205.809680  21556.087525    251.808515  8  2  5 103       
PG15 -18871.853088   3437.838550  17969.511709    100.134264  7  7  4  85       
PG16  24364.930905   2342.882570 -11181.455854   -416.702038  7 10 11  95       
PG17 -10251.208321 -21738.416206  11590.985707    722.912596  7  5  5  83       
PG18  -4559.910690  25978.580905   2114.987201   -487.683770  7  6  7  51       
PG19 -16593.141803 -20832.867565   2306.928893    403.081999  7  7  8  70       
PG20 -20132.539037  -2989.754303 -16917.020626    400.091717  6  7  7  79       
PG21  15422.460153  -6953.543076  20747.988838    143.455907  8  3  7  97       
PG22 -10340.819089 -12796.968194  21240.780639     78.357492  7  5  3 103       
PG23  -6706.197484  16493.210741  19660.307624    104.068117  6  6  6  66       
PG24 -14656.011021  12521.032882  17692.066908   -378.270175  6  4  6  71       
PG25 -14116.337339  16465.180229 -15471.891990    478.689233  8  7  7 103       
PG26  18421.129280   6972.586906 -18115.267401    214.487842  7  6  7 100       
PG27  22316.870175  11588.618153   8924.031417    -74.083944  5  6  7  80       
PG28   7634.910307  19981.180130 -15772.853416    -53.175701  9  5  4 110       
PG29  -3775.453914  16341.208865 -20613.283343   -610.144361  7  5  4 103       
PG30  -2447.799466 -24290.729836  10251.945363   -465.005758  7  6  7  94       
PG31  12068.036997  12031.227058 -20473.041477   -226.020369  8  6  6 103       
PG32  14760.475929  20704.488736   8219.911903   -589.182323  5  4     90       
*  2023 11 24  1 45  0.00000000
PG01  13534.923106 -15136.373331  16593.257778    163.289250  7  7  8 100       
PG02  14761.863336  -9085.198670  20575.506438   -524.909498 10  6  9 110       
PG03  23143.111494 -12241.334777  -4248.791928      6.418892  7  6  7  86       
PG04  14515.747251  -6967.273305 -21136.389298    221.180508  8  6  5  72       
PG05 -24677.385661   4329.084846  -9136.871113   -151.538871  8  8  6  89       
PG06  -7133.522204 -20241.829082 -15513.114510    497.725588  7  6  6  95       
PG07   5171.850205 -25669.801682  -1955.739288      5.555105  8  4  6  60       
PG08  20652.161959    479.855433  16842.729741   -153.581831  7  3  4  72       
PG09   3881.270809 -15715.030698 -21137.048781      6.096992  5  5  5  92       
PG10   5076.986963  13954.281156  22207.954066    -62.582686  7  2  4  64       
PG11 -12998.970410  -9519.836320 -21101.448819   -472.911770  7  6  5  46       
PG12 -24314.562629  10167.799405  -3243.345581   -450.251468 10  7  4  79       
PG13 -21345.667980 -11351.053526  11038.204447    598.520849  6  8  5  75       
PG14   -869.773541 -15936.584248  21230.960757    251.818161  8  3  5 108       
PG15 -20514.751135   2194.598388  16353.845924    100.137913  7  7  3  95       
PG16  23100.206838   2851.153692 -13525.757354   -416.696059  7  9 10  89       
PG17  -9112.318437 -20902.618684  13942.371194    722.912346  8  5  5  89       
PG18  -4800.838250  26007.747508   -777.416689   -487.693340  8  7  7  65       
PG19 -16143.094866 -20652.419280   5120.362458    403.086653  7  7  8  74       
PG20 -18441.187739  -4153.852442 -18534.461885    400.089901  7  7  7  59       
PG21  15317.678440  -4618.592515  21563.674403    143.454668  8  3  7 100       
PG22  -8057.794369 -13456.623459  21851.240521     78.351299  7  5  3 109       
PG23  -8762.455686  17181.028887  18190.857342    104.074020  6  6  7  66       
PG24 -14660.800680  10313.227656  19068.518683   -378.277987  5  4  7  85       
PG25 -15699.275250  16832.119585 -13337.489968    478.690726  8  7  7 103       
PG26  16542.039701   7967.483130 -19445.693419    214.485324  7  6  7  87       
PG27  22870.786141  12314.518291   6262.794461    -74.088624  5  5  7  70       
PG28   7211.119496  21617.908089 -13670.480391    -53.183773 10  4  5 111       
PG29  -5531.087852  14710.110130 -21439.704774   -610.143960  7  5  4  96       
PG30  -1954.331262 -25240.260335   7694.522131   -465.002060  8  6  7  94       
PG31  11501.290093  14212.402465 -19322.032605   -226.020651  9  6  6 101       
PG32  13809.429506  20194.910290  10778.738291   -589.186122  4  4     84       
*  2023 11 24  2  0  0.00000000
PG01  13391.876896 -13069.284200  18366.044741    163.289375  6  7  8  92       
PG02  14769.933652  -6778.982854  21479.399681   -524.904829  9  6  9 104       
PG03  23503.365826 -12179.450676  -1368.492029      6.442140  7  6  7  77       
PG04  16327.764704  -5443.316567 -20254.977323    221.189806  8  6  5  79       
PG05 -23721.796000   3639.495148 -11660.434051   -151.539993  7  9  7  82       
PG06  -6792.578264 -21870.454351 -13299.928539    497.716116  7  5  6  83       
PG07   5443.522290 -25192.237180  -4782.992833      5.546098  8  4  6  79       
PG08  22055.745664   1645.374446  14924.551760   -153.583135  7  3  4  55       
PG09   5899.649372 -14360.149592 -21635.347876      6.107319  5  5  5  96       
PG10   2793.117338  14924.694746  21949.436478    -62.584634  7  2  3  30       
PG11 -12547.456151 -11841.814977 -20185.094321   -472.926063  6  6  5  52       
PG12 -24565.959380   9992.914840   -386.158078   -450.255462  9  7  5  67       
PG13 -22021.799437 -12284.138537   8478.157830    598.524797  6  7  6  63       
PG14   1377.053774 -16762.715914  20540.551290    251.827761  7  4  5 108       
PG15 -22034.707894   1129.814276  14449.204088    100.141059  6  6  3  79       
PG16  21628.876755   3504.328949 -15646.475060   -416.689943  7  9  9 100       
PG17  -7742.151822 -19968.175113  16058.299914    722.911743  8  5  5  88       
PG18  -4995.462192  25724.068136  -3656.285510   -487.702892  8  7  7  61       
PG19 -15452.959182 -20285.735735   7847.098891    403.091534  7  6  7  75       
PG20 -16672.714270  -5490.948767 -19829.840563    400.088191  7  7  7  50       
PG21  15334.425673  -2220.626940  22020.206963    143.453910  7  3  6  86       
PG22  -5771.320153 -14251.278533  22099.654700     78.345001  7  5  4 105       
PG23 -10612.024662  17901.832518  16406.669747    104.079898  6  5  7  66       
PG24 -14763.697074   7971.145500  20102.027975   -378.285790  5  4  7  71       
PG25 -17033.861050  17174.569540 -10974.662334    478.692229  7  7  6  94       
PG26  14595.675748   9113.605269 -20448.339101    214.482802  7  6  7  92       
PG27  23217.281870  12825.800676   3495.649037    -74.093286  5  4  7  62       
PG28   6894.313699  23024.429919 -11333.228900    -53.191876 10  3  4 108       
PG29  -7426.566474  13129.477932 -21898.156128   -610.143813  6  6  3  96       
PG30  -1542.165246 -25917.967364   5003.167866   -464.998354  7  6  7  94       
PG31  11065.828526  16276.817582 -17840.074873   -226.020668  9  6  6 105       
PG32  12610.019395  19572.294742  13155.652663   -589.189959  4  3  2  72       
EOF
